NORAD_CAT_ID,OBJECT_NAME,OBJECT_TYPE,EPOCH,MEAN_MOTION,ECCENTRICITY,INCLINATION,RA_OF_ASC_NODE,ARG_OF_PERICENTER,MEAN_ANOMALY,BSTAR,MEAN_MOTION_DOT,MEAN_MOTION_DDOT,TLE_LINE0,TLE_LINE1,TLE_LINE2,SEMIMAJOR_AXIS,PERIOD,APOGEE,PERIGEE,DECAYED
54767.0,STARLINK-5472,PAYLOAD,2023-10-11 14:01:17,15.0882972,0.0001339,53.2183,35.0227,95.0649,265.0496,-2.5103e-05,-6.87e-06,0.0,0 STARLINK-5472,1 54767U 22175K   23284.58423163 -.00000687  00000-0 -25103-4 0  9995,2 54767  53.2183  35.0227 0001339  95.0649 265.0496 15.08829720 44890,6917.912,95.438,540.703,538.851,0.0
54767.0,STARLINK-5472,PAYLOAD,2023-10-12 02:44:22,15.08840285,0.0001352,53.2184,32.6453,93.0997,267.015,7.9531e-05,9.78e-06,0.0,0 STARLINK-5472,1 54767U 22175K   23285.11414896  .00000978  00000-0  79531-4 0  9993,2 54767  53.2184  32.6453 0001352  93.0997 267.0150 15.08840285 44971,6917.88,95.438,540.68,538.809,0.0
54767.0,STARLINK-5472,PAYLOAD,2023-10-12 13:52:03,15.08850926,0.0001351,53.2189,30.5635,93.8035,266.3111,0.00018106,2.596e-05,0.0,0 STARLINK-5472,1 54767U 22175K   23285.57782288  .00002596  00000-0  18106-3 0  9994,2 54767  53.2189  30.5635 0001351  93.8035 266.3111 15.08850926 47206,6917.847,95.437,540.647,538.777,0.0
54767.0,STARLINK-5472,PAYLOAD,2023-10-13 13:42:51,15.08850089,0.0001293,53.2184,26.1019,81.2157,278.8981,0.00036333,5.501e-05,0.0,0 STARLINK-5472,1 54767U 22175K   23286.57142824  .00005501  00000-0  36333-3 0  9992,2 54767  53.2184  26.1019 0001293  81.2157 278.8981 15.08850089 45198,6917.85,95.437,540.609,538.82,0.0
54767.0,STARLINK-5472,PAYLOAD,2023-10-14 10:22:51,15.08846521,0.0001618,53.2187,22.2371,79.1756,280.9418,0.00048769,7.483e-05,0.0,0 STARLINK-5472,1 54767U 22175K   23287.43254539  .00007483  00000-0  48769-3 0  9992,2 54767  53.2187  22.2371 0001618  79.1756 280.9418 15.08846521 45321,6917.86,95.437,540.845,538.606,0.0
54767.0,STARLINK-5472,PAYLOAD,2023-10-14 13:33:37,15.0885682,0.0001607,53.2185,21.6423,79.3022,280.8152,0.0011971,0.00018824,0.0,0 STARLINK-5472,1 54767U 22175K   23287.56502310  .00018824  00000-0  11971-2 0  9994,2 54767  53.2185  21.6423 0001607  79.3022 280.8152 15.08856820 47505,6917.829,95.436,540.806,538.582,0.0
54767.0,STARLINK-5472,PAYLOAD,2023-10-15 11:49:03,15.08820928,0.0001674,53.2182,17.4786,81.7321,278.3861,0.00012222,1.657e-05,0.0,0 STARLINK-5472,1 54767U 22175K   23288.49239881  .00001657  00000-0  12222-3 0  9994,2 54767  53.2182  17.4786 0001674  81.7321 278.3861 15.08820928 45484,6917.939,95.439,540.962,538.646,0.0
54767.0,STARLINK-5472,PAYLOAD,2023-10-15 13:24:26,15.08822033,0.0001669,53.2182,17.1814,76.4164,283.7014,-4.9212e-05,-1.071e-05,0.0,0 STARLINK-5472,1 54767U 22175K   23288.55863987 -.00001071  00000-0 -49212-4 0  9993,2 54767  53.2182  17.1814 0001669  76.4164 283.7014 15.08822033 47653,6917.935,95.439,540.955,538.646,0.0
54767.0,STARLINK-5472,PAYLOAD,2023-10-15 14:59:49,15.08825703,0.0001671,53.2178,16.8845,82.2879,277.8303,9.2105e-05,1.178e-05,0.0,0 STARLINK-5472,1 54767U 22175K   23288.62487956  .00001178  00000-0  92105-4 0  9994,2 54767  53.2178  16.8845 0001671  82.2879 277.8303 15.08825703 47662,6917.924,95.438,540.945,538.633,0.0
54767.0,STARLINK-5472,PAYLOAD,2023-10-15 22:56:45,15.08828587,0.0001563,53.2182,15.3972,90.3354,269.7817,0.00027938,4.16e-05,0.0,0 STARLINK-5472,1 54767U 22175K   23288.95607965  .00004160  00000-0  27938-3 0  9999,2 54767  53.2182  15.3972 0001563  90.3354 269.7817 15.08828587 45559,6917.915,95.438,540.862,538.699,0.0
54767.0,STARLINK-5472,PAYLOAD,2023-10-16 13:15:13,15.0885253,0.0001687,53.2177,12.7203,89.9649,270.1537,0.00088375,0.0001381,0.0,0 STARLINK-5472,1 54767U 22175K   23289.55223936  .00013810  00000-0  88375-3 0  9992,2 54767  53.2177  12.7203 0001687  89.9649 270.1537 15.08852530 45649,6917.842,95.437,540.874,538.54,0.0
54767.0,STARLINK-5472,PAYLOAD,2023-10-16 14:50:36,15.0885715,0.0001705,53.217,12.4245,88.1329,271.9859,0.00098839,0.00015485,0.0,0 STARLINK-5472,1 54767U 22175K   23289.61847886  .00015485  00000-0  98839-3 0  9991,2 54767  53.2170  12.4245 0001705  88.1329 271.9859 15.08857150 47812,6917.828,95.436,540.872,538.513,0.0
54767.0,STARLINK-5472,PAYLOAD,2023-10-17 11:30:37,15.08851558,0.000163,53.2178,8.5566,102.5223,257.5952,0.00037517,5.69e-05,0.0,0 STARLINK-5472,1 54767U 22175K   23290.47959730  .00005690  00000-0  37517-3 0  9992,2 54767  53.2178   8.5566 0001630 102.5223 257.5952 15.08851558 45787,6917.845,95.437,540.838,538.582,0.0
54767.0,STARLINK-5472,PAYLOAD,2023-10-17 22:38:19,15.08848361,0.0001554,53.2175,6.475,92.639,267.478,0.00032949,4.961e-05,0.0,0 STARLINK-5472,1 54767U 22175K   23290.94327609  .00004961  00000-0  32949-3 0  9992,2 54767  53.2175   6.4750 0001554  92.6390 267.4780 15.08848361 48011,6917.855,95.437,540.795,538.645,0.0
54767.0,STARLINK-5472,PAYLOAD,2023-10-18 11:21:24,15.08844294,0.0001659,53.2176,4.0976,91.7288,268.3894,0.00087988,0.00013745,0.0,0 STARLINK-5472,1 54767U 22175K   23291.47319954  .00013745  00000-0  87988-3 0  9998,2 54767  53.2176   4.0976 0001659  91.7288 268.3894 15.08844294 45933,6917.867,95.437,540.88,538.585,0.0
54767.0,STARLINK-5472,PAYLOAD,2023-10-19 04:50:38,15.08851815,0.0001513,53.2162,0.8274,85.2661,274.8504,0.00053849,8.295e-05,0.0,0 STARLINK-5472,1 54767U 22175K   23292.20183655  .00008295  00000-0  53849-3 0  9990,2 54767  53.2162   0.8274 0001513  85.2661 274.8504 15.08851815 46045,6917.844,95.437,540.756,538.663,0.0
54767.0,STARLINK-5472,PAYLOAD,2023-10-19 11:12:10,15.08861712,0.0001528,53.2168,359.6378,88.2172,271.8995,0.00057275,8.844e-05,0.0,0 STARLINK-5472,1 54767U 22175K   23292.46679184  .00008844  00000-0  57275-3 0  9992,2 54767  53.2168 359.6378 0001528  88.2172 271.8995 15.08861712 48249,6917.814,95.436,540.736,538.622,0.0
54767.0,STARLINK-5472,PAYLOAD,2023-10-20 04:41:25,15.08844014,0.0001495,53.2162,356.3671,82.1915,277.9247,0.00011324,1.515e-05,0.0,0 STARLINK-5472,1 54767U 22175K   23293.19543532  .00001515  00000-0  11324-3 0  9993,2 54767  53.2162 356.3671 0001495  82.1915 277.9247 15.08844014 46199,6917.868,95.437,540.767,538.699,0.0
54767.0,STARLINK-5472,PAYLOAD,2023-10-20 11:02:58,15.08842494,0.0001463,53.2178,355.1781,103.1967,256.9189,7.2949e-05,8.73e-06,0.0,0 STARLINK-5472,1 54767U 22175K   23293.46039531  .00000873  00000-0  72949-4 0  9999,2 54767  53.2178 355.1781 0001463 103.1967 256.9189 15.08842494 48397,6917.873,95.437,540.75,538.726,0.0
54767.0,STARLINK-5472,PAYLOAD,2023-10-20 18:59:53,15.08845158,0.0001313,53.2167,353.688,99.1765,260.9376,0.00017094,2.434e-05,0.0,0 STARLINK-5472,1 54767U 22175K   23293.79159438  .00002434  00000-0  17094-3 0  9998,2 54767  53.2167 353.6880 0001313  99.1765 260.9376 15.08845158 48441,6917.865,95.437,540.638,538.821,0.0
54767.0,STARLINK-5472,PAYLOAD,2023-10-21 10:53:45,15.08838929,0.0001438,53.2182,350.7181,89.204,270.9116,0.00054725,8.432e-05,0.0,0 STARLINK-5472,1 54767U 22175K   23294.45400138  .00008432  00000-0  54725-3 0  9994,2 54767  53.2182 350.7181 0001438  89.2040 270.9116 15.08838929 46386,6917.884,95.438,540.743,538.754,0.0
54767.0,STARLINK-5472,PAYLOAD,2023-10-21 20:26:04,15.08837554,0.0001327,53.2178,348.9335,85.8539,274.2605,0.00049727,7.634e-05,0.0,0 STARLINK-5472,1 54767U 22175K   23294.85144367  .00007634  00000-0  49727-3 0  9996,2 54767  53.2178 348.9335 0001327  85.8539 274.2605 15.08837554 48603,6917.888,95.438,540.671,538.835,0.0
54767.0,STARLINK-5472,PAYLOAD,2023-10-22 10:44:32,15.08850214,0.0001274,53.2179,346.2578,84.4033,275.7104,0.00044103,6.74e-05,0.0,0 STARLINK-5472,1 54767U 22175K   23295.44759969  .00006740  00000-0  44103-3 0  9992,2 54767  53.2179 346.2578 0001274  84.4033 275.7104 15.08850214 48696,6917.849,95.437,540.596,538.833,0.0
54767.0,STARLINK-5472,PAYLOAD,2023-10-22 20:16:51,15.08846862,9.19e-05,53.2182,344.4723,84.693,275.4167,0.00024867,3.673e-05,0.0,0 STARLINK-5472,1 54767U 22175K   23295.84503873  .00003673  00000-0  24867-3 0  9994,2 54767  53.2182 344.4723 0000919  84.6930 275.4167 15.08846862 46592,6917.859,95.437,540.36,539.089,0.0
54767.0,STARLINK-5472,PAYLOAD,2023-10-23 10:35:20,15.08830051,0.0001911,53.2179,341.7966,87.0627,273.0584,-6.0183e-05,-1.246e-05,0.0,0 STARLINK-5472,1 54767U 22175K   23296.44120887 -.00001246  00000-0 -60183-4 0  9999,2 54767  53.2179 341.7966 0001911  87.0627 273.0584 15.08830051 46680,6917.911,95.438,541.098,538.454,0.0
54767.0,STARLINK-5472,PAYLOAD,2023-10-23 20:07:39,15.0883536,0.0001963,53.2182,340.0115,87.916,272.2057,0.00011799,1.59e-05,0.0,0 STARLINK-5472,1 54767U 22175K   23296.83865048  .00001590  00000-0  11799-3 0  9995,2 54767  53.2182 340.0115 0001963  87.9160 272.2057 15.08835360 48901,6917.895,95.438,541.118,538.402,0.0
54767.0,STARLINK-5472,PAYLOAD,2023-10-24 10:26:07,15.08843654,0.0001858,53.2187,337.3355,87.7263,272.3942,0.00035006,5.288e-05,0.0,0 STARLINK-5472,1 54767U 22175K   23297.43480972  .00005288  00000-0  35006-3 0  9996,2 54767  53.2187 337.3355 0001858  87.7263 272.3942 15.08843654 46835,6917.869,95.437,541.02,538.449,0.0
54767.0,STARLINK-5472,PAYLOAD,2023-10-25 19:49:13,15.08847351,0.0001728,53.2164,331.0918,87.9646,272.1544,0.00021531,3.141e-05,0.0,0 STARLINK-5472,1 54767U 22175K   23298.82584685  .00003141  00000-0  21531-3 0  9990,2 54767  53.2164 331.0918 0001728  87.9646 272.1544 15.08847351 47047,6917.858,95.437,540.918,538.528,0.0
54767.0,STARLINK-5472,PAYLOAD,2023-10-26 11:43:04,15.08846796,0.0001716,53.2165,328.117,91.3053,268.8136,3.4175e-05,2.56e-06,0.0,0 STARLINK-5472,1 54767U 22175K   23299.48824567  .00000256  00000-0  34175-4 0  9992,2 54767  53.2165 328.1170 0001716  91.3053 268.8136 15.08846796 49305,6917.86,95.437,540.912,538.538,0.0
54767.0,STARLINK-5472,PAYLOAD,2023-10-26 19:40:00,15.08845824,0.0001696,53.2164,326.6301,91.3285,268.7901,8.1694e-05,1.013e-05,0.0,0 STARLINK-5472,1 54767U 22175K   23299.81944560  .00001013  00000-0  81694-4 0  9995,2 54767  53.2164 326.6301 0001696  91.3285 268.7901 15.08845824 49352,6917.863,95.437,540.901,538.554,0.0
